{
    "links": {
        "self": "http://www.neowsapp.com/rest/v1/neo/3837947?api_key=iIulBulltgU6a56xZRHN4H3l9WmuAYTsLGpBGhQ2"
    },
    "id": "3837947",
    "neo_reference_id": "3837947",
    "name": "(2019 AJ14)",
    "designation": "2019 AJ14",
    "nasa_jpl_url": "http://ssd.jpl.nasa.gov/sbdb.cgi?sstr=3837947",
    "absolute_magnitude_h": 23.966,
    "estimated_diameter": {
        "kilometers": {
            "estimated_diameter_min": 0.0427912503,
            "estimated_diameter_max": 0.0956841446
        },
        "meters": {
            "estimated_diameter_min": 42.7912503458,
            "estimated_diameter_max": 95.6841446155
        },
        "miles": {
            "estimated_diameter_min": 0.026589242,
            "estimated_diameter_max": 0.0594553526
        },
        "feet": {
            "estimated_diameter_min": 140.3912457846,
            "estimated_diameter_max": 313.9243690202
        }
    },
    "is_potentially_hazardous_asteroid": false,
    "close_approach_data": [
        {
            "close_approach_date": "2018-12-24",
            "close_approach_date_full": "2018-Dec-24 05:00",
            "epoch_date_close_approach": 1545627600000,
            "relative_velocity": {
                "kilometers_per_second": "12.011011446",
                "kilometers_per_hour": "43239.6412057714",
                "miles_per_hour": "26867.4315036639"
            },
            "miss_distance": {
                "astronomical": "0.132298117",
                "lunar": "51.463967513",
                "kilometers": "19791516.50821079",
                "miles": "12297878.098017302"
            },
            "orbiting_body": "Earth"
        }
    ],
    "orbital_data": {
        "orbit_id": "1",
        "orbit_determination_date": "2019-01-26 09:58:21",
        "first_observation_date": "2019-01-09",
        "last_observation_date": "2019-01-11",
        "data_arc_in_days": 2,
        "observations_used": 5,
        "orbit_uncertainty": "9",
        "minimum_orbit_intersection": ".106442",
        "jupiter_tisserand_invariant": "3.010",
        "epoch_osculation": "2458493.5",
        "eccentricity": ".6664393571337003",
        "semi_major_axis": "2.649093364360581",
        "inclination": "10.63026524867966",
        "ascending_node_longitude": "313.3792479007745",
        "orbital_period": "1574.868600058716",
        "perihelion_distance": ".883633285628964",
        "perihelion_argument": "99.04202306685451",
        "aphelion_distance": "4.414553443092197",
        "perihelion_time": "2458446.138546624180",
        "mean_anomaly": "10.82637828620084",
        "mean_motion": ".2285904995417257",
        "equinox": "J2000",
        "orbit_class": {
            "orbit_class_type": "APO",
            "orbit_class_description": "Near-Earth asteroid orbits which cross the Earth’s orbit similar to that of 1862 Apollo",
            "orbit_class_range": "a (semi-major axis) > 1.0 AU; q (perihelion) < 1.017 AU"
        }
    },
    "is_sentry_object": false
}